{"type": "FeatureCollection", "features": [ {"type": "Feature", "properties": {"norad_id": 66599, "name": "STARLINK-35930", "group": "last-30-days", "lat": -42.28788704478835, "lon": 67.68793878743402, "alt_km": 417.6344357859725, "timestamp": "2025-12-16T13:52:36.286697+00:00", "meta": {"OBJECT_NAME": "STARLINK-35930", "OBJECT_ID": "2025-270M", "EPOCH": "2025-12-15T21:17:54.430656", "MEAN_MOTION": 15.50589612, "ECCENTRICITY": 6.501e-05, "INCLINATION": 42.9985, "RA_OF_ASC_NODE": 174.2775, "ARG_OF_PERICENTER": 263.4139, "MEAN_ANOMALY": 96.6648, "EPHEMERIS_TYPE": 0, "CLASSIFICATION_TYPE": "U", "NORAD_CAT_ID": 66599, "ELEMENT_SET_NO": 999, "REV_AT_EPOCH": 483, "BSTAR": 0.0011625815, "MEAN_MOTION_DOT": 0.00068486, "MEAN_MOTION_DDOT": 0}, "tle": {"line1": "1 66599U 25270M   25349.88743554  .00068486  00000+0  11626-2 0  9997", "line2": "2 66599  42.9985 174.2775 0000650 263.4139  96.6648 15.50589612  4832"}}, "geometry": {"type": "Point", "coordinates": [67.68793878743402, -42.28788704478835]}}, {"type": "Feature", "properties": {"norad_id": 66600, "name": "STARLINK-35980", "group": "last-30-days", "lat": -42.54128175027847, "lon": 70.23234342784993, "alt_km": 416.3204025963123, "timestamp": "2025-12-16T13:52:36.286707+00:00", "meta": {"OBJECT_NAME": "STARLINK-35980", "OBJECT_ID": "2025-270N", "EPOCH": "2025-12-15T21:17:24.400608", "MEAN_MOTION": 15.50588266, "ECCENTRICITY": 0.00028106, "INCLINATION": 42.9988, "RA_OF_ASC_NODE": 174.2745, "ARG_OF_PERICENTER": 279.8877, "MEAN_ANOMALY": 80.1666, "EPHEMERIS_TYPE": 0, "CLASSIFICATION_TYPE": "U", "NORAD_CAT_ID": 66600, "ELEMENT_SET_NO": 999, "REV_AT_EPOCH": 473, "BSTAR": 0.0011463137, "MEAN_MOTION_DOT": 0.00067517, "MEAN_MOTION_DDOT": 0}, "tle": {"line1": "1 66600U 25270N   25349.88708797  .00067517  00000+0  11463-2 0  9993", "line2": "2 66600  42.9988 174.2745 0002810 279.8877  80.1666 15.50588266  4736"}}, "geometry": {"type": "Point", "coordinates": [70.23234342784993, -42.54128175027847]}}, {"type": "Feature", "properties": {"norad_id": 66601, "name": "STARLINK-35978", "group": "last-30-days", "lat": -13.206881711658152, "lon": 4.9733485175823, "alt_km": 444.7277317931266, "timestamp": "2025-12-16T13:52:36.286718+00:00", "meta": {"OBJECT_NAME": "STARLINK-35978", "OBJECT_ID": "2025-270P", "EPOCH": "2025-12-15T22:00:01.999584", "MEAN_MOTION": 15.40619116, "ECCENTRICITY": 0.00014239, "INCLINATION": 42.9991, "RA_OF_ASC_NODE": 174.1995, "ARG_OF_PERICENTER": 250.9063, "MEAN_ANOMALY": 235.2358, "EPHEMERIS_TYPE": 0, "CLASSIFICATION_TYPE": "U", "NORAD_CAT_ID": 66601, "ELEMENT_SET_NO": 999, "REV_AT_EPOCH": 475, "BSTAR": 0.0020462453, "MEAN_MOTION_DOT": 0.0008591, "MEAN_MOTION_DDOT": 0}, "tle": {"line1": "1 66601U 25270P   25349.91668981  .00085910  00000+0  20462-2 0  9994", "line2": "2 66601  42.9991 174.1995 0001423 250.9063 235.2358 15.40619116  4754"}}, "geometry": {"type": "Point", "coordinates": [4.9733485175823, -13.206881711658152]}}, {"type": "Feature", "properties": {"norad_id": 66602, "name": "STARLINK-36050", "group": "last-30-days", "lat": 33.96856928988517, "lon": -55.73477765966635, "alt_km": 439.45089418144926, "timestamp": "2025-12-16T13:52:36.286728+00:00", "meta": {"OBJECT_NAME": "STARLINK-36050", "OBJECT_ID": "2025-270Q", "EPOCH": "2025-12-15T22:00:01.999584", "MEAN_MOTION": 15.40659907, "ECCENTRICITY": 0.00017679, "INCLINATION": 42.9996, "RA_OF_ASC_NODE": 174.38, "ARG_OF_PERICENTER": 264.1735, "MEAN_ANOMALY": 147.3104, "EPHEMERIS_TYPE": 0, "CLASSIFICATION_TYPE": "U", "NORAD_CAT_ID": 66602, "ELEMENT_SET_NO": 999, "REV_AT_EPOCH": 481, "BSTAR": 0.0016272291, "MEAN_MOTION_DOT": 0.00068189, "MEAN_MOTION_DDOT": 0}, "tle": {"line1": "1 66602U 25270Q   25349.91668981  .00068189  00000+0  16272-2 0  9998", "line2": "2 66602  42.9996 174.3800 0001767 264.1735 147.3104 15.40659907  4812"}}, "geometry": {"type": "Point", "coordinates": [-55.73477765966635, 33.96856928988517]}}, {"type": "Feature", "properties": {"norad_id": 66603, "name": "STARLINK-36048", "group": "last-30-days", "lat": -34.6954919935644, "lon": 38.281468457543525, "alt_km": 443.1471725021602, "timestamp": "2025-12-16T13:52:36.286738+00:00", "meta": {"OBJECT_NAME": "STARLINK-36048", "OBJECT_ID": "2025-270R", "EPOCH": "2025-12-15T22:00:01.999584", "MEAN_MOTION": 15.44642912, "ECCENTRICITY": 0.00011241, "INCLINATION": 42.9994, "RA_OF_ASC_NODE": 174.1242, "ARG_OF_PERICENTER": 286.1135, "MEAN_ANOMALY": 231.1016, "EPHEMERIS_TYPE": 0, "CLASSIFICATION_TYPE": "U", "NORAD_CAT_ID": 66603, "ELEMENT_SET_NO": 999, "REV_AT_EPOCH": 481, "BSTAR": -0.047799163, "MEAN_MOTION_DOT": -0.02029197, "MEAN_MOTION_DDOT": 0}, "tle": {"line1": "1 66603U 25270R   25349.91668981 -.02029197  00000+0 -47799-1 0  9996", "line2": "2 66603  42.9994 174.1242 0001124 286.1135 231.1016 15.44642912  4810"}}, "geometry": {"type": "Point", "coordinates": [38.281468457543525, -34.6954919935644]}}, {"type": "Feature", "properties": {"norad_id": 66604, "name": "STARLINK-35977", "group": "last-30-days", "lat": -42.975997087608675, "lon": 80.96097160607852, "alt_km": 417.0748168776454, "timestamp": "2025-12-16T13:52:36.286748+00:00", "meta": {"OBJECT_NAME": "STARLINK-35977", "OBJECT_ID": "2025-270S", "EPOCH": "2025-12-15T05:47:51.952128", "MEAN_MOTION": 15.50594552, "ECCENTRICITY": 0.00014478, "INCLINATION": 42.9989, "RA_OF_ASC_NODE": 178.0309, "ARG_OF_PERICENTER": 284.8784, "MEAN_ANOMALY": 75.1916, "EPHEMERIS_TYPE": 0, "CLASSIFICATION_TYPE": "U", "NORAD_CAT_ID": 66604, "ELEMENT_SET_NO": 999, "REV_AT_EPOCH": 473, "BSTAR": 0.00084362823, "MEAN_MOTION_DOT": 0.00049491, "MEAN_MOTION_DDOT": 0}, "tle": {"line1": "1 66604U 25270S   25349.24157352  .00049491  00000+0  84363-3 0  9993", "line2": "2 66604  42.9989 178.0309 0001447 284.8784  75.1916 15.50594552  4734"}}, "geometry": {"type": "Point", "coordinates": [80.96097160607852, -42.975997087608675]}}, {"type": "Feature", "properties": {"norad_id": 66605, "name": "STARLINK-36052", "group": "last-30-days", "lat": -42.93251102715838, "lon": 83.32260417031928, "alt_km": 416.6266174899547, "timestamp": "2025-12-16T13:52:36.286758+00:00", "meta": {"OBJECT_NAME": "STARLINK-36052", "OBJECT_ID": "2025-270T", "EPOCH": "2025-12-15T21:14:56.294592", "MEAN_MOTION": 15.5060937, "ECCENTRICITY": 0.00021568, "INCLINATION": 42.9952, "RA_OF_ASC_NODE": 174.2621, "ARG_OF_PERICENTER": 258.8815, "MEAN_ANOMALY": 101.1803, "EPHEMERIS_TYPE": 0, "CLASSIFICATION_TYPE": "U", "NORAD_CAT_ID": 66605, "ELEMENT_SET_NO": 999, "REV_AT_EPOCH": 483, "BSTAR": 0.0010205444, "MEAN_MOTION_DOT": 0.00060057, "MEAN_MOTION_DDOT": 0}, "tle": {"line1": "1 66605U 25270T   25349.88537378  .00060057  00000+0  10205-2 0  9998", "line2": "2 66605  42.9952 174.2621 0002156 258.8815 101.1803 15.50609370  4835"}}, "geometry": {"type": "Point", "coordinates": [83.32260417031928, -42.93251102715838]}}, {"type": "Feature", "properties": {"norad_id": 66606, "name": "STARLINK-36063", "group": "last-30-days", "lat": -42.68052506436904, "lon": 88.45466473364831, "alt_km": 416.9514332137487, "timestamp": "2025-12-16T13:52:36.286770+00:00", "meta": {"OBJECT_NAME": "STARLINK-36063", "OBJECT_ID": "2025-270U", "EPOCH": "2025-12-15T21:13:57.114912", "MEAN_MOTION": 15.5058995, "ECCENTRICITY": 0.00016969, "INCLINATION": 42.9987, "RA_OF_ASC_NODE": 174.2546, "ARG_OF_PERICENTER": 274.1989, "MEAN_ANOMALY": 85.8678, "EPHEMERIS_TYPE": 0, "CLASSIFICATION_TYPE": "U", "NORAD_CAT_ID": 66606, "ELEMENT_SET_NO": 999, "REV_AT_EPOCH": 483, "BSTAR": 0.0011009121, "MEAN_MOTION_DOT": 0.00064806, "MEAN_MOTION_DDOT": 0}, "tle": {"line1": "1 66606U 25270U   25349.88468883  .00064806  00000+0  11009-2 0  9992", "line2": "2 66606  42.9987 174.2546 0001696 274.1989  85.8678 15.50589950  4830"}}, "geometry": {"type": "Point", "coordinates": [88.45466473364831, -42.68052506436904]}}, {"type": "Feature", "properties": {"norad_id": 66607, "name": "STARLINK-35993", "group": "last-30-days", "lat": -42.83717226670368, "lon": 85.888936400645, "alt_km": 417.0078187022518, "timestamp": "2025-12-16T13:52:36.286780+00:00", "meta": {"OBJECT_NAME": "STARLINK-35993", "OBJECT_ID": "2025-270V", "EPOCH": "2025-12-15T21:14:26.729376", "MEAN_MOTION": 15.50594365, "ECCENTRICITY": 0.00015824, "INCLINATION": 42.9986, "RA_OF_ASC_NODE": 174.2577, "ARG_OF_PERICENTER": 270.0031, "MEAN_ANOMALY": 90.0648, "EPHEMERIS_TYPE": 0, "CLASSIFICATION_TYPE": "U", "NORAD_CAT_ID": 66607, "ELEMENT_SET_NO": 999, "REV_AT_EPOCH": 473, "BSTAR": 0.0011567667, "MEAN_MOTION_DOT": 0.00068151, "MEAN_MOTION_DDOT": 0}, "tle": {"line1": "1 66607U 25270V   25349.88503159  .00068151  00000+0  11568-2 0  9996", "line2": "2 66607  42.9986 174.2577 0001582 270.0031  90.0648 15.50594365  4731"}}, "geometry": {"type": "Point", "coordinates": [85.888936400645, -42.83717226670368]}}, {"type": "Feature", "properties": {"norad_id": 66608, "name": "STARLINK-36036", "group": "last-30-days", "lat": -42.46407302234065, "lon": 91.0322797880232, "alt_km": 417.0355633613617, "timestamp": "2025-12-16T13:52:36.286793+00:00", "meta": {"OBJECT_NAME": "STARLINK-36036", "OBJECT_ID": "2025-270W", "EPOCH": "2025-12-15T21:13:27.510816", "MEAN_MOTION": 15.50590211, "ECCENTRICITY": 0.00015609, "INCLINATION": 42.9987, "RA_OF_ASC_NODE": 174.252, "ARG_OF_PERICENTER": 273.3219, "MEAN_ANOMALY": 86.7462, "EPHEMERIS_TYPE": 0, "CLASSIFICATION_TYPE": "U", "NORAD_CAT_ID": 66608, "ELEMENT_SET_NO": 999, "REV_AT_EPOCH": 467, "BSTAR": 0.0010893309, "MEAN_MOTION_DOT": 0.00064115, "MEAN_MOTION_DDOT": 0}, "tle": {"line1": "1 66608U 25270W   25349.88434619  .00064115  00000+0  10893-2 0  9997", "line2": "2 66608  42.9987 174.2520 0001560 273.3219  86.7462 15.50590211  4676"}}, "geometry": {"type": "Point", "coordinates": [91.0322797880232, -42.46407302234065]}}]}